CCSDS_OMM_VERS = 2.0
CREATION_DATE  = 
ORIGINATOR     = 

OBJECT_NAME    = 2025-313A
OBJECT_ID      = 2025-313A
CENTER_NAME    = EARTH
REF_FRAME      = TEME
TIME_SYSTEM    = UTC
MEAN_ELEMENT_THEORY = SGP/SGP4

EPOCH          = 2026-01-26T11:08:35.272032
MEAN_MOTION    = 14.66848871
ECCENTRICITY   = .0280402
INCLINATION    = 97.5609
RA_OF_ASC_NODE = 101.7711
ARG_OF_PERICENTER = 72.1402
MEAN_ANOMALY   = 291.0173

EPHEMERIS_TYPE = 0
CLASSIFICATION_TYPE = U
NORAD_CAT_ID   = 67248
ELEMENT_SET_NO = 999
REV_AT_EPOCH   = 424
BSTAR          = .22743E-3
MEAN_MOTION_DOT = .2245E-4
MEAN_MOTION_DDOT = 0

CCSDS_OMM_VERS = 2.0
CREATION_DATE  = 
ORIGINATOR     = 

OBJECT_NAME    = 2025-313B
OBJECT_ID      = 2025-313B
CENTER_NAME    = EARTH
REF_FRAME      = TEME
TIME_SYSTEM    = UTC
MEAN_ELEMENT_THEORY = SGP/SGP4

EPOCH          = 2026-01-26T11:25:24.186432
MEAN_MOTION    = 14.73313054
ECCENTRICITY   = .0297443
INCLINATION    = 97.5297
RA_OF_ASC_NODE = 101.9335
ARG_OF_PERICENTER = 75.8879
MEAN_ANOMALY   = 287.5191

EPHEMERIS_TYPE = 0
CLASSIFICATION_TYPE = U
NORAD_CAT_ID   = 67249
ELEMENT_SET_NO = 999
REV_AT_EPOCH   = 426
BSTAR          = .35775E-3
MEAN_MOTION_DOT = .4674E-4
MEAN_MOTION_DDOT = 0

CCSDS_OMM_VERS = 2.0
CREATION_DATE  = 
ORIGINATOR     = 

OBJECT_NAME    = 2025-313C
OBJECT_ID      = 2025-313C
CENTER_NAME    = EARTH
REF_FRAME      = TEME
TIME_SYSTEM    = UTC
MEAN_ELEMENT_THEORY = SGP/SGP4

EPOCH          = 2026-01-26T10:57:52.110432
MEAN_MOTION    = 14.85192868
ECCENTRICITY   = .0161594
INCLINATION    = 97.6334
RA_OF_ASC_NODE = 102.7813
ARG_OF_PERICENTER = 85.3836
MEAN_ANOMALY   = 276.5816

EPHEMERIS_TYPE = 0
CLASSIFICATION_TYPE = U
NORAD_CAT_ID   = 67250
ELEMENT_SET_NO = 999
REV_AT_EPOCH   = 429
BSTAR          = .17253E-2
MEAN_MOTION_DOT = .18692E-3
MEAN_MOTION_DDOT = 0

CCSDS_OMM_VERS = 2.0
CREATION_DATE  = 
ORIGINATOR     = 

OBJECT_NAME    = 2025-313D
OBJECT_ID      = 2025-313D
CENTER_NAME    = EARTH
REF_FRAME      = TEME
TIME_SYSTEM    = UTC
MEAN_ELEMENT_THEORY = SGP/SGP4

EPOCH          = 2026-01-26T12:15:52.260192
MEAN_MOTION    = 14.88845539
ECCENTRICITY   = .0152265
INCLINATION    = 97.5854
RA_OF_ASC_NODE = 102.8181
ARG_OF_PERICENTER = 77.7767
MEAN_ANOMALY   = 284.0456

EPHEMERIS_TYPE = 0
CLASSIFICATION_TYPE = U
NORAD_CAT_ID   = 67251
ELEMENT_SET_NO = 999
REV_AT_EPOCH   = 431
BSTAR          = .33394E-3
MEAN_MOTION_DOT = .3828E-4
MEAN_MOTION_DDOT = 0

CCSDS_OMM_VERS = 2.0
CREATION_DATE  = 
ORIGINATOR     = 

OBJECT_NAME    = ZORKIY-2M-VPE
OBJECT_ID      = 2025-313E
CENTER_NAME    = EARTH
REF_FRAME      = TEME
TIME_SYSTEM    = UTC
MEAN_ELEMENT_THEORY = SGP/SGP4

EPOCH          = 2026-01-26T11:32:24.244224
MEAN_MOTION    = 15.21922474
ECCENTRICITY   = .001169
INCLINATION    = 97.4090
RA_OF_ASC_NODE = 103.5065
ARG_OF_PERICENTER = 119.8728
MEAN_ANOMALY   = 240.3671

EPHEMERIS_TYPE = 0
CLASSIFICATION_TYPE = U
NORAD_CAT_ID   = 67252
ELEMENT_SET_NO = 999
REV_AT_EPOCH   = 440
BSTAR          = .57372E-3
MEAN_MOTION_DOT = .13036E-3
MEAN_MOTION_DDOT = 0

CCSDS_OMM_VERS = 2.0
CREATION_DATE  = 
ORIGINATOR     = 

OBJECT_NAME    = AIST-2T 1
OBJECT_ID      = 2025-313F
CENTER_NAME    = EARTH
REF_FRAME      = TEME
TIME_SYSTEM    = UTC
MEAN_ELEMENT_THEORY = SGP/SGP4

EPOCH          = 2026-01-26T10:50:31.734816
MEAN_MOTION    = 15.66686599
ECCENTRICITY   = .0010482
INCLINATION    = 97.1008
RA_OF_ASC_NODE = 103.8836
ARG_OF_PERICENTER = 135.8210
MEAN_ANOMALY   = 224.3890

EPHEMERIS_TYPE = 0
CLASSIFICATION_TYPE = U
NORAD_CAT_ID   = 67253
ELEMENT_SET_NO = 999
REV_AT_EPOCH   = 450
BSTAR          = .66984E-3
MEAN_MOTION_DOT = .70789E-3
MEAN_MOTION_DDOT = 0

CCSDS_OMM_VERS = 2.0
CREATION_DATE  = 
ORIGINATOR     = 

OBJECT_NAME    = AIST-2T 2
OBJECT_ID      = 2025-313G
CENTER_NAME    = EARTH
REF_FRAME      = TEME
TIME_SYSTEM    = UTC
MEAN_ELEMENT_THEORY = SGP/SGP4

EPOCH          = 2026-01-26T11:03:00.306144
MEAN_MOTION    = 15.64179944
ECCENTRICITY   = .0007752
INCLINATION    = 97.1005
RA_OF_ASC_NODE = 103.8720
ARG_OF_PERICENTER = 183.2651
MEAN_ANOMALY   = 176.8560

EPHEMERIS_TYPE = 0
CLASSIFICATION_TYPE = U
NORAD_CAT_ID   = 67254
ELEMENT_SET_NO = 999
REV_AT_EPOCH   = 449
BSTAR          = .63197E-3
MEAN_MOTION_DOT = .60294E-3
MEAN_MOTION_DDOT = 0

CCSDS_OMM_VERS = 2.0
CREATION_DATE  = 
ORIGINATOR     = 

OBJECT_NAME    = 2025-313H
OBJECT_ID      = 2025-313H
CENTER_NAME    = EARTH
REF_FRAME      = TEME
TIME_SYSTEM    = UTC
MEAN_ELEMENT_THEORY = SGP/SGP4

EPOCH          = 2026-01-26T10:52:45.020640
MEAN_MOTION    = 15.02257752
ECCENTRICITY   = .0091406
INCLINATION    = 97.3060
RA_OF_ASC_NODE = 102.2809
ARG_OF_PERICENTER = 97.7439
MEAN_ANOMALY   = 263.4177

EPHEMERIS_TYPE = 0
CLASSIFICATION_TYPE = U
NORAD_CAT_ID   = 67255
ELEMENT_SET_NO = 999
REV_AT_EPOCH   = 434
BSTAR          = .26232E-3
MEAN_MOTION_DOT = .3728E-4
MEAN_MOTION_DDOT = 0

CCSDS_OMM_VERS = 2.0
CREATION_DATE  = 
ORIGINATOR     = 

OBJECT_NAME    = SITRO-AIS-57
OBJECT_ID      = 2025-313J
CENTER_NAME    = EARTH
REF_FRAME      = TEME
TIME_SYSTEM    = UTC
MEAN_ELEMENT_THEORY = SGP/SGP4

EPOCH          = 2026-01-26T10:45:47.229120
MEAN_MOTION    = 15.20228803
ECCENTRICITY   = .0017604
INCLINATION    = 97.4079
RA_OF_ASC_NODE = 103.3916
ARG_OF_PERICENTER = 136.8720
MEAN_ANOMALY   = 223.3897

EPHEMERIS_TYPE = 0
CLASSIFICATION_TYPE = U
NORAD_CAT_ID   = 67256
ELEMENT_SET_NO = 999
REV_AT_EPOCH   = 439
BSTAR          = .70052E-3
MEAN_MOTION_DOT = .15201E-3
MEAN_MOTION_DDOT = 0

CCSDS_OMM_VERS = 2.0
CREATION_DATE  = 
ORIGINATOR     = 

OBJECT_NAME    = SITRO-AIS-59
OBJECT_ID      = 2025-313K
CENTER_NAME    = EARTH
REF_FRAME      = TEME
TIME_SYSTEM    = UTC
MEAN_ELEMENT_THEORY = SGP/SGP4

EPOCH          = 2026-01-26T12:19:47.264736
MEAN_MOTION    = 15.20238939
ECCENTRICITY   = .0017373
INCLINATION    = 97.4085
RA_OF_ASC_NODE = 103.4593
ARG_OF_PERICENTER = 138.7212
MEAN_ANOMALY   = 221.5340

EPHEMERIS_TYPE = 0
CLASSIFICATION_TYPE = U
NORAD_CAT_ID   = 67257
ELEMENT_SET_NO = 999
REV_AT_EPOCH   = 440
BSTAR          = .67028E-3
MEAN_MOTION_DOT = .14544E-3
MEAN_MOTION_DDOT = 0

CCSDS_OMM_VERS = 2.0
CREATION_DATE  = 
ORIGINATOR     = 

OBJECT_NAME    = SITRO-AIS-58
OBJECT_ID      = 2025-313L
CENTER_NAME    = EARTH
REF_FRAME      = TEME
TIME_SYSTEM    = UTC
MEAN_ELEMENT_THEORY = SGP/SGP4

EPOCH          = 2026-01-26T10:43:59.110752
MEAN_MOTION    = 15.20291620
ECCENTRICITY   = .0017299
INCLINATION    = 97.4082
RA_OF_ASC_NODE = 103.3934
ARG_OF_PERICENTER = 138.1915
MEAN_ANOMALY   = 222.0645

EPHEMERIS_TYPE = 0
CLASSIFICATION_TYPE = U
NORAD_CAT_ID   = 67258
ELEMENT_SET_NO = 999
REV_AT_EPOCH   = 439
BSTAR          = .70584E-3
MEAN_MOTION_DOT = .15343E-3
MEAN_MOTION_DDOT = 0

CCSDS_OMM_VERS = 2.0
CREATION_DATE  = 
ORIGINATOR     = 

OBJECT_NAME    = 2025-313M
OBJECT_ID      = 2025-313M
CENTER_NAME    = EARTH
REF_FRAME      = TEME
TIME_SYSTEM    = UTC
MEAN_ELEMENT_THEORY = SGP/SGP4

EPOCH          = 2026-01-26T10:36:32.025312
MEAN_MOTION    = 15.20679600
ECCENTRICITY   = .0016375
INCLINATION    = 97.4123
RA_OF_ASC_NODE = 103.4277
ARG_OF_PERICENTER = 137.0868
MEAN_ANOMALY   = 223.1649

EPHEMERIS_TYPE = 0
CLASSIFICATION_TYPE = U
NORAD_CAT_ID   = 67259
ELEMENT_SET_NO = 999
REV_AT_EPOCH   = 439
BSTAR          = .89065E-3
MEAN_MOTION_DOT = .19602E-3
MEAN_MOTION_DDOT = 0

