2025-313A               
1 67248U 25313A   26026.46429713  .00002245  00000+0  22743-3 0  9996
2 67248  97.5609 101.7711 0280402  72.1402 291.0173 14.66848871  4241
2025-313B               
1 67249U 25313B   26026.47597438  .00004674  00000+0  35775-3 0  9995
2 67249  97.5297 101.9335 0297443  75.8879 287.5191 14.73313054  4260
2025-313C               
1 67250U 25313C   26026.45685313  .00018692  00000+0  17253-2 0  9990
2 67250  97.6334 102.7813 0161594  85.3836 276.5816 14.85192868  4297
2025-313D               
1 67251U 25313D   26026.51102153  .00003828  00000+0  33394-3 0  9994
2 67251  97.5854 102.8181 0152265  77.7767 284.0456 14.88845539  4316
ZORKIY-2M-VPE           
1 67252U 25313E   26026.48083616  .00013036  00000+0  57372-3 0  9997
2 67252  97.4090 103.5065 0011690 119.8728 240.3671 15.21922474  4404
AIST-2T 1               
1 67253U 25313F   26026.45175619  .00070789  00000+0  66984-3 0  9997
2 67253  97.1008 103.8836 0010482 135.8210 224.3890 15.66686599  4502
AIST-2T 2               
1 67254U 25313G   26026.46042021  .00060294  00000+0  63197-3 0  9992
2 67254  97.1005 103.8720 0007752 183.2651 176.8560 15.64179944  4496
2025-313H               
1 67255U 25313H   26026.45329885  .00003728  00000+0  26232-3 0  9996
2 67255  97.3060 102.2809 0091406  97.7439 263.4177 15.02257752  4340
SITRO-AIS-57            
1 67256U 25313J   26026.44846330  .00015201  00000+0  70052-3 0  9993
2 67256  97.4079 103.3916 0017604 136.8720 223.3897 15.20228803  4393
SITRO-AIS-59            
1 67257U 25313K   26026.51374149  .00014544  00000+0  67028-3 0  9994
2 67257  97.4085 103.4593 0017373 138.7212 221.5340 15.20238939  4409
SITRO-AIS-58            
1 67258U 25313L   26026.44721193  .00015343  00000+0  70584-3 0  9991
2 67258  97.4082 103.3934 0017299 138.1915 222.0645 15.20291620  4394
2025-313M               
1 67259U 25313M   26026.44203733  .00019602  00000+0  89065-3 0  9993
2 67259  97.4123 103.4277 0016375 137.0868 223.1649 15.20679600  4395
